{
  "type": "FeatureCollection",
  "features": [
    {
      "type": "Feature",
      "properties": {
        "norad_id": 43719,
        "name": "HYSIS",
        "group": "resource",
        "lat": 22.888719570208995,
        "lon": -129.7019423408203,
        "alt_km": 633.4435233786444,
        "timestamp": "2025-12-09T21:34:11.064733+00:00",
        "meta_object_name": "HYSIS",
        "meta_object_id": "2018-096A",
        "meta_epoch": "2025-12-09T14:22:00.384384",
        "meta_mean_motion": 14.78632615,
        "meta_eccentricity": 0.00014914,
        "meta_inclination": 98.0096,
        "meta_ra_of_asc_node": 46.5914,
        "meta_arg_of_pericenter": 58.2305,
        "meta_mean_anomaly": 301.9051,
        "meta_ephemeris_type": 0,
        "meta_classification_type": "U",
        "meta_norad_cat_id": 43719,
        "meta_element_set_no": 999,
        "meta_rev_at_epoch": 37940,
        "meta_bstar": 0.00036663611,
        "meta_mean_motion_dot": 2.633e-05,
        "meta_mean_motion_ddot": 0,
        "tle_line1": "1 43719U 18096A   25343.59861556  .00002633  00000+0  36664-3 0  9991",
        "tle_line2": "2 43719  98.0096  46.5914 0001491  58.2305 301.9051 14.78632615379400"
      },
      "geometry": {
        "type": "Point",
        "coordinates": [
          -129.7019423408203,
          22.888719570208995
        ]
      }
    },
    {
      "type": "Feature",
      "properties": {
        "norad_id": 43783,
        "name": "KAZSTSAT",
        "group": "resource",
        "lat": -1.6689442676753001,
        "lon": -161.01293295365136,
        "alt_km": 576.1896726762052,
        "timestamp": "2025-12-09T21:34:11.064743+00:00",
        "meta_object_name": "KAZSTSAT",
        "meta_object_id": "2018-099AB",
        "meta_epoch": "2025-12-09T12:45:13.516416",
        "meta_mean_motion": 14.99338471,
        "meta_eccentricity": 0.00060696,
        "meta_inclination": 97.4557,
        "meta_ra_of_asc_node": 18.8541,
        "meta_arg_of_pericenter": 343.5366,
        "meta_mean_anomaly": 16.566,
        "meta_ephemeris_type": 0,
        "meta_classification_type": "U",
        "meta_norad_cat_id": 43783,
        "meta_element_set_no": 999,
        "meta_rev_at_epoch": 38288,
        "meta_bstar": 0.00022078592,
        "meta_mean_motion_dot": 2.643e-05,
        "meta_mean_motion_ddot": 0,
        "tle_line1": "1 43783U 18099AB  25343.53140644  .00002643  00000+0  22079-3 0  9993",
        "tle_line2": "2 43783  97.4557  18.8541 0006069 343.5366  16.5660 14.99338471382884"
      },
      "geometry": {
        "type": "Point",
        "coordinates": [
          -161.01293295365136,
          -1.6689442676753001
        ]
      }
    },
    {
      "type": "Feature",
      "properties": {
        "norad_id": 43831,
        "name": "SAUDISAT 5A",
        "group": "resource",
        "lat": -33.99048364639334,
        "lon": 49.12719365788165,
        "alt_km": 499.1958178239893,
        "timestamp": "2025-12-09T21:34:11.064753+00:00",
        "meta_object_name": "SAUDISAT 5A",
        "meta_object_id": "2018-102A",
        "meta_epoch": "2025-12-09T15:25:23.689056",
        "meta_mean_motion": 15.25596357,
        "meta_eccentricity": 0.00118299,
        "meta_inclination": 97.3352,
        "meta_ra_of_asc_node": 43.8932,
        "meta_arg_of_pericenter": 85.7042,
        "meta_mean_anomaly": 274.5548,
        "meta_ephemeris_type": 0,
        "meta_classification_type": "U",
        "meta_norad_cat_id": 43831,
        "meta_element_set_no": 999,
        "meta_rev_at_epoch": 38675,
        "meta_bstar": 0.0003673309,
        "meta_mean_motion_dot": 9.281e-05,
        "meta_mean_motion_ddot": 0,
        "tle_line1": "1 43831U 18102A   25343.64263529  .00009281  00000+0  36733-3 0  9999",
        "tle_line2": "2 43831  97.3352  43.8932 0011829  85.7042 274.5548 15.25596357386758"
      },
      "geometry": {
        "type": "Point",
        "coordinates": [
          49.12719365788165,
          -33.99048364639334
        ]
      }
    },
    {
      "type": "Feature",
      "properties": {
        "norad_id": 43833,
        "name": "SAUDISAT 5B",
        "group": "resource",
        "lat": 14.179842073024863,
        "lon": 45.01023476653519,
        "alt_km": 486.4317125940215,
        "timestamp": "2025-12-09T21:34:11.064766+00:00",
        "meta_object_name": "SAUDISAT 5B",
        "meta_object_id": "2018-102C",
        "meta_epoch": "2025-12-09T15:12:43.497792",
        "meta_mean_motion": 15.25950111,
        "meta_eccentricity": 0.0012527,
        "meta_inclination": 97.3447,
        "meta_ra_of_asc_node": 46.6176,
        "meta_arg_of_pericenter": 88.0805,
        "meta_mean_anomaly": 272.1868,
        "meta_ephemeris_type": 0,
        "meta_classification_type": "U",
        "meta_norad_cat_id": 43833,
        "meta_element_set_no": 999,
        "meta_rev_at_epoch": 38686,
        "meta_bstar": 0.00033343368,
        "meta_mean_motion_dot": 8.509e-05,
        "meta_mean_motion_ddot": 0,
        "tle_line1": "1 43833U 18102C   25343.63383678  .00008509  00000+0  33343-3 0  9994",
        "tle_line2": "2 43833  97.3447  46.6176 0012527  88.0805 272.1868 15.25950111386868"
      },
      "geometry": {
        "type": "Point",
        "coordinates": [
          45.01023476653519,
          14.179842073024863
        ]
      }
    },
    {
      "type": "Feature",
      "properties": {
        "norad_id": 44622,
        "name": "GAOFEN-10R",
        "group": "resource",
        "lat": 38.23241217559873,
        "lon": -74.98975215239014,
        "alt_km": 612.2414412840672,
        "timestamp": "2025-12-09T21:34:11.064776+00:00",
        "meta_object_name": "GAOFEN-10R",
        "meta_object_id": "2019-066A",
        "meta_epoch": "2025-12-09T14:55:04.179360",
        "meta_mean_motion": 14.82775768,
        "meta_eccentricity": 0.00080305,
        "meta_inclination": 98.0276,
        "meta_ra_of_asc_node": 291.1157,
        "meta_arg_of_pericenter": 50.6583,
        "meta_mean_anomaly": 309.534,
        "meta_ephemeris_type": 0,
        "meta_classification_type": "U",
        "meta_norad_cat_id": 44622,
        "meta_element_set_no": 999,
        "meta_rev_at_epoch": 33428,
        "meta_bstar": 0.00036600382,
        "meta_mean_motion_dot": 2.906e-05,
        "meta_mean_motion_ddot": 0,
        "tle_line1": "1 44622U 19066A   25343.62157615  .00002906  00000+0  36600-3 0  9994",
        "tle_line2": "2 44622  98.0276 291.1157 0008030  50.6583 309.5340 14.82775768334285"
      },
      "geometry": {
        "type": "Point",
        "coordinates": [
          -74.98975215239014,
          38.23241217559873
        ]
      }
    },
    {
      "type": "Feature",
      "properties": {
        "norad_id": 44804,
        "name": "CARTOSAT-3",
        "group": "resource",
        "lat": -9.857991902457906,
        "lon": -137.7862512444565,
        "alt_km": 512.8567197126149,
        "timestamp": "2025-12-09T21:34:11.064786+00:00",
        "meta_object_name": "CARTOSAT-3",
        "meta_object_id": "2019-081A",
        "meta_epoch": "2025-12-09T14:24:56.338848",
        "meta_mean_motion": 15.193308,
        "meta_eccentricity": 0.00139646,
        "meta_inclination": 97.4581,
        "meta_ra_of_asc_node": 43.2238,
        "meta_arg_of_pericenter": 96.4058,
        "meta_mean_anomaly": 263.8767,
        "meta_ephemeris_type": 0,
        "meta_classification_type": "U",
        "meta_norad_cat_id": 44804,
        "meta_element_set_no": 999,
        "meta_rev_at_epoch": 33468,
        "meta_bstar": 0.00036073221,
        "meta_mean_motion_dot": 7.573e-05,
        "meta_mean_motion_ddot": 0,
        "tle_line1": "1 44804U 19081A   25343.60065207  .00007573  00000+0  36073-3 0  9995",
        "tle_line2": "2 44804  97.4581  43.2238 0013964  96.4058 263.8767 15.19330800334686"
      },
      "geometry": {
        "type": "Point",
        "coordinates": [
          -137.7862512444565,
          -9.857991902457906
        ]
      }
    },
    {
      "type": "Feature",
      "properties": {
        "norad_id": 44819,
        "name": "GAOFEN-12 01",
        "group": "resource",
        "lat": -32.13644950751669,
        "lon": -4.797758571181475,
        "alt_km": 633.1593263828254,
        "timestamp": "2025-12-09T21:34:11.064796+00:00",
        "meta_object_name": "GAOFEN-12 01",
        "meta_object_id": "2019-082A",
        "meta_epoch": "2025-12-09T15:13:42.659328",
        "meta_mean_motion": 14.80652058,
        "meta_eccentricity": 0.00012018,
        "meta_inclination": 97.8127,
        "meta_ra_of_asc_node": 349.997,
        "meta_arg_of_pericenter": 253.8827,
        "meta_mean_anomaly": 106.2253,
        "meta_ephemeris_type": 0,
        "meta_classification_type": "U",
        "meta_norad_cat_id": 44819,
        "meta_element_set_no": 999,
        "meta_rev_at_epoch": 32604,
        "meta_bstar": 0.00012589944,
        "meta_mean_motion_dot": 9.16e-06,
        "meta_mean_motion_ddot": 0,
        "tle_line1": "1 44819U 19082A   25343.63452152  .00000916  00000+0  12590-3 0  9996",
        "tle_line2": "2 44819  97.8127 349.9970 0001201 253.8827 106.2253 14.80652058326045"
      },
      "geometry": {
        "type": "Point",
        "coordinates": [
          -4.797758571181475,
          -32.13644950751669
        ]
      }
    }
  ]
}